{
  "norad_id": 62391,
  "name": "LASARSAT",
  "history": [
    {
      "epoch": "2026-03-28T00:47:41.666496Z",
      "apogee_km": 444.8448626338459,
      "perigee_km": 439.20731582429016,
      "latitude_deg": 1.6090785339424815e-05,
      "longitude_deg": 159.1597243406199,
      "height_km": 444.69331309011204,
      "semi_major_axis_km": 6820.163089229068,
      "eccentricity": 0.0004133,
      "inclination_deg": 44.9771,
      "raan_deg": 356.5427,
      "arg_perigee_deg": 198.684,
      "mean_anomaly_deg": 161.3897,
      "mean_motion_rev_day": 15.41383203
    },
    {
      "epoch": "2026-03-29T01:40:49.166400Z",
      "apogee_km": 444.7636440152646,
      "perigee_km": 438.78530961469005,
      "latitude_deg": 1.988528208963361e-05,
      "longitude_deg": 139.0739704297345,
      "height_km": 444.4905274991753,
      "semi_major_axis_km": 6819.9114768149775,
      "eccentricity": 0.0004383,
      "inclination_deg": 44.9773,
      "raan_deg": 350.7602,
      "arg_perigee_deg": 204.5652,
      "mean_anomaly_deg": 155.5028,
      "mean_motion_rev_day": 15.41468505
    },
    {
      "epoch": "2026-03-30T02:33:51.352704Z",
      "apogee_km": 444.6536964515326,
      "perigee_km": 438.3252194910647,
      "latitude_deg": 3.3669664650168e-05,
      "longitude_deg": 119.01002801568704,
      "height_km": 444.2096334940832,
      "semi_major_axis_km": 6819.626457971298,
      "eccentricity": 0.00046399,
      "inclination_deg": 44.9773,
      "raan_deg": 344.9773,
      "arg_perigee_deg": 210.6452,
      "mean_anomaly_deg": 149.4166,
      "mean_motion_rev_day": 15.41565142
    },
    {
      "epoch": "2026-03-30T10:20:24.705600Z",
      "apogee_km": 444.63829678716047,
      "perigee_km": 438.1880934306182,
      "latitude_deg": 7.619216575555634e-05,
      "longitude_deg": 0.2440541560355546,
      "height_km": 444.12574351840584,
      "semi_major_axis_km": 6819.550195108889,
      "eccentricity": 0.00047292,
      "inclination_deg": 44.9775,
      "raan_deg": 343.1696,
      "arg_perigee_deg": 212.6809,
      "mean_anomaly_deg": 147.3788,
      "mean_motion_rev_day": 15.41591001
    },
    {
      "epoch": "2026-03-30T16:33:39.034368Z",
      "apogee_km": 444.61353062998296,
      "perigee_km": 438.0751483113263,
      "latitude_deg": -1.7566967906945783e-05,
      "longitude_deg": -94.76741494572991,
      "height_km": 444.0482519585525,
      "semi_major_axis_km": 6819.481339470654,
      "eccentricity": 0.00047939,
      "inclination_deg": 44.9775,
      "raan_deg": 341.7234,
      "arg_perigee_deg": 214.1403,
      "mean_anomaly_deg": 145.9177,
      "mean_motion_rev_day": 15.41614349
    },
    {
      "epoch": "2026-03-31T09:40:01.799040Z",
      "apogee_km": 444.5309409657784,
      "perigee_km": 437.82632622114215,
      "latitude_deg": 4.8455116642253124e-05,
      "longitude_deg": 3.958767141280308,
      "height_km": 443.8167110701146,
      "semi_major_axis_km": 6819.31563359346,
      "eccentricity": 0.00049159,
      "inclination_deg": 44.9776,
      "raan_deg": 337.7469,
      "arg_perigee_deg": 218.0536,
      "mean_anomaly_deg": 142.0006,
      "mean_motion_rev_day": 15.4167054
    },
    {
      "epoch": "2026-04-01T01:13:04.299744Z",
      "apogee_km": 444.4443182121413,
      "perigee_km": 437.62132965310775,
      "latitude_deg": 4.525683796678084e-05,
      "longitude_deg": 126.44430092412017,
      "height_km": 443.5952391276927,
      "semi_major_axis_km": 6819.169823932624,
      "eccentricity": 0.00050028,
      "inclination_deg": 44.9773,
      "raan_deg": 334.1315,
      "arg_perigee_deg": 221.275,
      "mean_anomaly_deg": 138.7761,
      "mean_motion_rev_day": 15.41719987
    },
    {
      "epoch": "2026-04-02T08:19:04.009152Z",
      "apogee_km": 444.2429332313659,
      "perigee_km": 437.2274047890005,
      "latitude_deg": -5.056130280100263e-05,
      "longitude_deg": 11.437089473397872,
      "height_km": 443.07624363787704,
      "semi_major_axis_km": 6818.872169010183,
      "eccentricity": 0.00051442,
      "inclination_deg": 44.9767,
      "raan_deg": 326.9004,
      "arg_perigee_deg": 228.1064,
      "mean_anomaly_deg": 131.9385,
      "mean_motion_rev_day": 15.41820936
    },
    {
      "epoch": "2026-04-02T23:52:00.614784Z",
      "apogee_km": 444.0906391790504,
      "perigee_km": 436.9543665165593,
      "latitude_deg": -2.0263457950576524e-05,
      "longitude_deg": 133.94688619456446,
      "height_km": 442.7356070564836,
      "semi_major_axis_km": 6818.659502847804,
      "eccentricity": 0.00052329,
      "inclination_deg": 44.9764,
      "raan_deg": 323.2846,
      "arg_perigee_deg": 231.6435,
      "mean_anomaly_deg": 128.3983,
      "mean_motion_rev_day": 15.41893068
    },
    {
      "epoch": "2026-04-04T00:44:37.904064Z",
      "apogee_km": 443.86481959661523,
      "perigee_km": 436.52870157025245,
      "latitude_deg": -3.4154905892211876e-05,
      "longitude_deg": 113.9839371630014,
      "height_km": 442.1751552874652,
      "semi_major_axis_km": 6818.333760583433,
      "eccentricity": 0.00053797,
      "inclination_deg": 44.9765,
      "raan_deg": 317.4987,
      "arg_perigee_deg": 237.3439,
      "mean_anomaly_deg": 122.693,
      "mean_motion_rev_day": 15.42003564
    },
    {
      "epoch": "2026-04-05T23:23:02.975136Z",
      "apogee_km": 443.66539860011017,
      "perigee_km": 435.8413239793017,
      "latitude_deg": -1.9362210397826554e-06,
      "longitude_deg": 121.61415480625409,
      "height_km": 441.23590821795204,
      "semi_major_axis_km": 6817.890361289706,
      "eccentricity": 0.00057379,
      "inclination_deg": 44.9766,
      "raan_deg": 306.6488,
      "arg_perigee_deg": 247.7221,
      "mean_anomaly_deg": 112.3059,
      "mean_motion_rev_day": 15.42153992
    },
    {
      "epoch": "2026-04-07T14:14:52.192896Z",
      "apogee_km": 443.4060719121326,
      "perigee_km": 435.4445226613607,
      "latitude_deg": -3.4421633603260246e-05,
      "longitude_deg": -111.97993007266258,
      "height_km": 440.41835559468404,
      "semi_major_axis_km": 6817.562297286746,
      "eccentricity": 0.0005839,
      "inclination_deg": 44.9757,
      "raan_deg": 297.6059,
      "arg_perigee_deg": 255.5477,
      "mean_anomaly_deg": 104.4763,
      "mean_motion_rev_day": 15.42265307
    },
    {
      "epoch": "2026-04-08T13:33:53.177184Z",
      "apogee_km": 443.2797425533863,
      "perigee_km": 435.22635968599843,
      "latitude_deg": -3.612936120993258e-05,
      "longitude_deg": -108.11752861146046,
      "height_km": 439.9057769806664,
      "semi_major_axis_km": 6817.3900511196925,
      "eccentricity": 0.00059065,
      "inclination_deg": 44.9758,
      "raan_deg": 292.18,
      "arg_perigee_deg": 260.6663,
      "mean_anomaly_deg": 99.3557,
      "mean_motion_rev_day": 15.42323757
    },
    {
      "epoch": "2026-04-09T20:39:09.583776Z",
      "apogee_km": 443.1027192778729,
      "perigee_km": 434.9507548810725,
      "latitude_deg": 4.642410864369783e-06,
      "longitude_deg": 137.05251301738213,
      "height_km": 439.2165726355807,
      "semi_major_axis_km": 6817.163737079472,
      "eccentricity": 0.0005979,
      "inclination_deg": 44.9751,
      "raan_deg": 284.9451,
      "arg_perigee_deg": 267.3259,
      "mean_anomaly_deg": 92.6945,
      "mean_motion_rev_day": 15.4240056
    },
    {
      "epoch": "2026-04-09T20:39:09.584640Z",
      "apogee_km": 443.1027874495094,
      "perigee_km": 434.950686709436,
      "latitude_deg": 5.456304980024695e-06,
      "longitude_deg": 137.0525102176031,
      "height_km": 439.216575815797,
      "semi_major_axis_km": 6817.163737079472,
      "eccentricity": 0.00059791,
      "inclination_deg": 44.9751,
      "raan_deg": 284.9451,
      "arg_perigee_deg": 267.3259,
      "mean_anomaly_deg": 92.6945,
      "mean_motion_rev_day": 15.4240056
    },
    {
      "epoch": "2026-04-11T11:30:37.180800Z",
      "apogee_km": 442.92548910919504,
      "perigee_km": 434.57480235567346,
      "latitude_deg": -1.707296710382758e-05,
      "longitude_deg": -96.45252736452042,
      "height_km": 438.3755745909491,
      "semi_major_axis_km": 6816.887145732434,
      "eccentricity": 0.0006125,
      "inclination_deg": 44.9752,
      "raan_deg": 275.9009,
      "arg_perigee_deg": 275.1439,
      "mean_anomaly_deg": 84.875,
      "mean_motion_rev_day": 15.42494434
    },
    {
      "epoch": "2026-04-13T03:55:12.326304Z",
      "apogee_km": 442.7838319578268,
      "perigee_km": 434.2730887972357,
      "latitude_deg": -1.1173633035245521e-06,
      "longitude_deg": 6.334177711104462,
      "height_km": 437.57629056940294,
      "semi_major_axis_km": 6816.665460377531,
      "eccentricity": 0.00062426,
      "inclination_deg": 44.9753,
      "raan_deg": 266.4936,
      "arg_perigee_deg": 282.9278,
      "mean_anomaly_deg": 77.0913,
      "mean_motion_rev_day": 15.4256968
    }
  ]
}